[{"OBJECT_NAME":"QIANFAN-39","OBJECT_ID":"2024-232D","EPOCH":"2026-03-09T21:25:16.059072","MEAN_MOTION":14.25440879,"ECCENTRICITY":0.00171102,"INCLINATION":89.0064,"RA_OF_ASC_NODE":27.3413,"ARG_OF_PERICENTER":145.5992,"MEAN_ANOMALY":214.6313,"EPHEMERIS_TYPE":0,"CLASSIFICATION_TYPE":"U","NORAD_CAT_ID":62240,"ELEMENT_SET_NO":999,"REV_AT_EPOCH":11380,"BSTAR":0.00022622412,"MEAN_MOTION_DOT":5.49e-6,"MEAN_MOTION_DDOT":0},{"OBJECT_NAME":"COSMOS 1818","OBJECT_ID":"1987-011A","EPOCH":"2026-03-09T15:44:10.459104","MEAN_MOTION":14.31860192,"ECCENTRICITY":0.00146185,"INCLINATION":65.0116,"RA_OF_ASC_NODE":166.2565,"ARG_OF_PERICENTER":284.4411,"MEAN_ANOMALY":75.5051,"EPHEMERIS_TYPE":0,"CLASSIFICATION_TYPE":"U","NORAD_CAT_ID":17369,"ELEMENT_SET_NO":999,"REV_AT_EPOCH":9454,"BSTAR":3.3688225e-5,"MEAN_MOTION_DOT":-1.0e-7,"MEAN_MOTION_DDOT":0}]
